CAS-2T & KS-1Q          
1 41847U 16066G   21164.78755975  .00000110  00000-0  27601-4 0  9992
2 41847  98.6012 223.9033 0364319 231.2225 125.5894 14.38195204241353
NAYIF-1 (EO-88)         
1 42017U 17008BX  21164.82869299  .00002621  00000-0  98058-4 0  9992
2 42017  97.3154 232.4932 0007634 115.9661 244.2366 15.28176760240702
ZHUHAI-1 02 (CAS-4B)    
1 42759U 17034B   21165.52347810  .00000250  00000-0  28359-4 0  9995
2 42759  43.0163 197.1908 0007609 152.2154 332.0274 15.10226111220705
ZHUHAI-1 01 (CAS-4A)    
1 42761U 17034D   21165.45204610  .00000202  00000-0  25402-4 0  9993
2 42761  43.0166 196.6393 0007874 152.2505 351.3527 15.10312754220699
MAX VALIER SAT          
1 42778U 17036P   21164.69173610  .00001395  00000-0  61043-4 0  9998
2 42778  97.2549 213.4260 0011805 180.7564 179.3658 15.23605950220717
RADFXSAT (FOX-1B)       
1 43017U 17073E   21165.29000885  .00000671  00000-0  57617-4 0  9994
2 43017  97.7072  69.4020 0253802 310.9832  46.9670 14.79562420192651
FOX-1D (AO-92)          
1 43137U 18004AC  21165.18379797  .00001478  00000-0  61636-4 0  9993
2 43137  97.4066 239.2483 0007811 213.3320 146.7427 15.25254916190151
DIWATA-2B               
1 43678U 18084H   21165.56927432  .00000060  00000-0  11695-4 0  9994
2 43678  97.9238 290.8336 0011220  64.5178 295.7229 14.91752501143005
ES'HAIL 2               
1 43700U 18090A   21165.26270069  .00000154  00000-0  00000+0 0  9998
2 43700   0.0166 302.5224 0001036 165.7396 274.9069  1.00275116  9586
FOX-1CLIFF (AO-95)      
1 43770U 18099N   21165.17105458 -.00000001  00000-0  50273-5 0  9998
2 43770  97.6649 235.4307 0015958  70.9982 289.2966 14.95326720137968
ITASAT 1                
1 43786U 18099AE  21164.75640206  .00000483  00000-0  48497-4 0  9990
2 43786  97.6671 235.7005 0016662  66.1327 294.1638 14.95621654137933
JY1SAT (JO-97)          
1 43803U 18099AX  21164.72086928  .00000287  00000-0  30747-4 0  9993
2 43803  97.6627 235.4181 0016351  66.1350 294.1583 14.95864227137931
UWE-4                   
1 43880U 18111E   21164.70699103  .00000405  00000-0  40290-4 0  9992
2 43880  97.6880  72.5042 0013737 112.5317 247.7360 14.96874375134522
PSAT2 (NO-104)          
1 44354U 19036R   21164.28261950  .00011618  00000-0  15140-3 0  9997
2 44354  28.5281 154.8476 0325730 230.7856 126.3388 15.13400780108340
BRICSAT2 (NO-103)       
1 44355U 19036S   21164.88185953  .00033526  00000-0  36840-3 0  9994
2 44355  28.5264 106.3965 0264280 309.7535  48.0056 15.29349802108885
JAISAT-1                
1 44419U 19038F   21164.87039589  .00001305  00000-0  75776-4 0  9991
2 44419  97.5883 129.5841 0020170 329.1156  30.8887 15.13764240107253
DUCHIFAT-3              
1 44854U 19089C   21165.19748975  .00000485  00000-0  45113-4 0  9992
2 44854  36.9649 119.8877 0006989 111.5196 248.6290 14.99499977 82617
RS-44 & BREEZE-KM R/B   
1 44909U 19096E   21165.34403645  .00000032  00000-0  74695-4 0  9995
2 44909  82.5204 114.8787 0218532 100.2876 262.2941 12.79710176 68472
ORBITAL FACTORY 2 (OF-2)
1 45113U 19071C   21165.41210207  .00002931  00000-0  93810-4 0  9994
2 45113  51.6432  52.2589 0011173 283.5324  76.4414 15.35759021 76702
HUSKYSAT-1 (HO-107)     
1 45119U 19071J   21164.90299432  .00003415  00000-0  10740-3 0  9998
2 45119  51.6424  54.1050 0010563 277.8067  82.1717 15.35780452 76628
BY70-2                  
1 45857U 20042B   21165.52883052  .00001358  00000-0  19967-3 0  9997
2 45857  97.9840 241.3058 0010187 214.8814 145.1747 14.77026107 51118
SALSAT                  
1 46495U 20068K   21164.93362050 -.00000150  00000-0 -64376-5 0  9995
2 46495  97.6952 102.4508 0019007  83.6105 276.7281 15.03457997 38800
BY70-3                  
1 46839U 20079N   21165.51792720  .00003527  00000-0  11067-3 0  9991
2 46839  97.2404 239.4317 0006230 204.6529 280.6111 15.33668401 33750
RADFXSAT-2 (AO-109)     
1 47311U 21002C   21164.74405747  .00001043  00000-0  57197-4 0  9994
2 47311  60.6846 305.0819 0036117  46.0150 314.3904 15.21645068 22307
UVSQ-SAT                
1 47438U 21006AB  21164.87675883  .00000976  00000-0  58611-4 0  9998
2 47438  97.4873 226.1646 0014373 108.7756 251.5036 15.13134319 21517
DIY-1 (ARDUIQUBE)       
1 47963U 21022AH  21164.71035566  .00001840  00000-0  12587-3 0  9992
2 47963  97.5590  67.1105 0018667 323.2028  36.7918 15.07237605 11332
